NORAD_CAT_ID,OBJECT_NAME,OBJECT_TYPE,EPOCH,MEAN_MOTION,ECCENTRICITY,INCLINATION,RA_OF_ASC_NODE,ARG_OF_PERICENTER,MEAN_ANOMALY,BSTAR,MEAN_MOTION_DOT,MEAN_MOTION_DDOT,TLE_LINE0,TLE_LINE1,TLE_LINE2,SEMIMAJOR_AXIS,PERIOD,APOGEE,PERIGEE,DECAYED
55425.0,STARLINK-5615,PAYLOAD,2023-06-08 02:28:02,14.99302202,0.0002563,70.0008,99.9535,271.4298,88.6568,-0.000176,-2.247e-05,0.0,0 STARLINK-5615,1 55425U 23014AL  23159.10281037 -.00002247  00000-0 -17600-3 0  9997,2 55425  70.0008  99.9535 0002563 271.4298  88.6568 14.99302202 19998,6947.188,96.045,570.834,567.272,0.0
55425.0,STARLINK-5615,PAYLOAD,2023-06-08 13:40:33,14.99298761,0.0002604,70.0003,98.7731,274.4131,85.6731,-3.9102e-06,-1.42e-06,0.0,0 STARLINK-5615,1 55425U 23014AL  23159.56982702 -.00000142  00000-0 -39102-5 0  9999,2 55425  70.0003  98.7731 0002604 274.4131  85.6731 14.99298761 21001,6947.199,96.045,570.873,567.255,0.0
55425.0,STARLINK-5615,PAYLOAD,2023-06-09 05:41:15,14.99303048,0.000283,69.9994,97.0874,274.0067,86.0769,0.00028169,3.355e-05,0.0,0 STARLINK-5615,1 55425U 23014AL  23160.23698446  .00003355  00000-0  28169-3 0  9990,2 55425  69.9994  97.0874 0002830 274.0067  86.0769 14.99303048 20169,6947.185,96.045,571.017,567.084,0.0
55425.0,STARLINK-5615,PAYLOAD,2023-06-09 13:41:37,14.99299834,0.0002768,69.9995,96.2448,273.8159,86.2684,0.00015899,1.852e-05,0.0,0 STARLINK-5615,1 55425U 23014AL  23160.57057369  .00001852  00000-0  15899-3 0  9996,2 55425  69.9995  96.2448 0002768 273.8159  86.2684 14.99299834 21152,6947.195,96.045,570.983,567.137,0.0
55425.0,STARLINK-5615,PAYLOAD,2023-06-09 18:29:50,14.99300325,0.0002737,69.9998,95.7401,274.5026,85.5821,3.5942e-05,3.46e-06,0.0,0 STARLINK-5615,1 55425U 23014AL  23160.77072813  .00000346  00000-0  35942-4 0  9998,2 55425  69.9998  95.7401 0002737 274.5026  85.5821 14.99300325 20247,6947.194,96.045,570.96,567.157,0.0
55425.0,STARLINK-5615,PAYLOAD,2023-06-10 05:42:20,14.99303374,0.0002607,69.9999,94.5597,271.5383,88.5478,6.912e-05,7.52e-06,0.0,0 STARLINK-5615,1 55425U 23014AL  23161.23774199  .00000752  00000-0  69120-4 0  9992,2 55425  69.9999  94.5597 0002607 271.5383  88.5478 14.99303374 21250,6947.184,96.045,570.861,567.238,0.0
55425.0,STARLINK-5615,PAYLOAD,2023-06-11 02:31:17,14.99306199,0.0002512,70.0004,92.3698,270.9771,89.11,-7.0184e-05,-9.53e-06,0.0,0 STARLINK-5615,1 55425U 23014AL  23162.10505933 -.00000953  00000-0 -70184-4 0  9994,2 55425  70.0004  92.3698 0002512 270.9771  89.1100 14.99306199 20444,6947.176,96.044,570.786,567.296,0.0
55425.0,STARLINK-5615,PAYLOAD,2023-06-11 12:07:43,14.99301597,0.0002533,70.0003,91.3593,259.3597,100.7278,1.2685e-05,6.1e-07,0.0,0 STARLINK-5615,1 55425U 23014AL  23162.50535907  .00000061  00000-0  12685-4 0  9992,2 55425  70.0003  91.3593 0002533 259.3597 100.7278 14.99301597 21440,6947.19,96.045,570.815,567.295,0.0
55425.0,STARLINK-5615,PAYLOAD,2023-06-12 05:44:30,14.99304996,0.0002586,70.0003,89.5064,269.2938,90.7926,1.569e-05,9.8e-07,0.0,0 STARLINK-5615,1 55425U 23014AL  23163.23923946  .00000098  00000-0  15690-4 0  9996,2 55425  70.0003  89.5064 0002586 269.2938  90.7926 14.99304996 20611,6947.179,96.045,570.841,567.248,0.0
55425.0,STARLINK-5615,PAYLOAD,2023-06-12 12:08:49,14.99279246,0.0002346,70.0004,88.8326,281.6461,78.4435,-0.00026475,-3.33e-05,0.0,0 STARLINK-5615,1 55425U 23014AL  23163.50613328 -.00003330  00000-0 -26475-3 0  9992,2 55425  70.0004  88.8326 0002346 281.6461  78.4435 14.99279246 21593,6947.259,96.046,570.754,567.494,0.0
55425.0,STARLINK-5615,PAYLOAD,2023-06-13 04:10:13,14.98885457,0.0003141,70.0022,87.1527,235.5653,124.5209,-0.0039296,-0.00047341,0.0,0 STARLINK-5615,1 55425U 23014AL  23164.17376609 -.00047341  00000-0 -39296-2 0  9998,2 55425  70.0022  87.1527 0003141 235.5653 124.5209 14.98885457 20758,6948.476,96.071,572.523,568.158,0.0
55425.0,STARLINK-5615,PAYLOAD,2023-06-13 08:58:42,14.98743832,0.0003033,70.0,86.6452,269.4617,90.6195,-0.0052608,-0.00062975,0.0,0 STARLINK-5615,1 55425U 23014AL  23164.37409901 -.00062975  00000-0 -52608-2 0  9994,2 55425  70.0000  86.6452 0003033 269.4617  90.6195 14.98743832 20781,6948.913,96.08,572.886,568.671,0.0
55425.0,STARLINK-5615,PAYLOAD,2023-06-13 18:35:23,14.98694901,0.0003131,70.0011,85.6367,265.1993,94.8809,-0.0051991,-0.00062166,0.0,0 STARLINK-5615,1 55425U 23014AL  23164.77457342 -.00062166  00000-0 -51991-2 0  9996,2 55425  70.0011  85.6367 0003131 265.1993  94.8809 14.98694901 20843,6949.065,96.084,573.105,568.754,0.0
55425.0,STARLINK-5615,PAYLOAD,2023-06-14 04:12:04,14.98662489,0.0002997,70.0001,84.6247,266.5333,93.5483,-0.0049148,-0.0005875,0.0,0 STARLINK-5615,1 55425U 23014AL  23165.17505163 -.00058750  00000-0 -49148-2 0  9991,2 55425  70.0001  84.6247 0002997 266.5333  93.5483 14.98662489 21841,6949.165,96.086,573.113,568.947,0.0
55425.0,STARLINK-5615,PAYLOAD,2023-06-14 18:37:11,14.98461481,0.0003395,70.0002,83.1097,256.4478,103.6302,-0.0021713,-0.00025994,0.0,0 STARLINK-5615,1 55425U 23014AL  23165.77583203 -.00025994  00000-0 -21713-2 0  9990,2 55425  70.0002  83.1097 0003395 256.4478 103.6302 14.98461481 20997,6949.786,96.099,574.011,569.292,0.0
55425.0,STARLINK-5615,PAYLOAD,2023-06-15 06:00:00,14.98320603,0.0003258,70.0016,81.9123,271.4387,125.6116,0.0016128,0.00019199,0.0,0 STARLINK-5615,1 55425U 23014AL  23166.25001157  .00019199  00000-0  16128-2 0  9999,2 55425  70.0016  81.9123 0003258 271.4387 125.6116 14.98320603 21068,6950.222,96.108,574.351,569.823,0.0
55425.0,STARLINK-5615,PAYLOAD,2023-06-15 14:00:01,14.98295738,0.0003255,70.0019,81.072,265.0611,129.4791,0.0056071,0.00067398,0.0,0 STARLINK-5615,1 55425U 23014AL  23166.58334491  .00067398  00000-0  56071-2 0  9990,2 55425  70.0019  81.0720 0003255 265.0611 129.4791 14.98295738  1307,6950.299,96.109,574.426,569.902,0.0
55425.0,STARLINK-5615,PAYLOAD,2023-06-15 20:00:01,14.9835849,0.0003276,70.0022,80.4419,264.929,37.7022,-0.0015229,-0.00018231,0.0,0 STARLINK-5615,1 55425U 23014AL  23166.83334491 -.00018231  00000-0 -15229-2 0  9992,2 55425  70.0022  80.4419 0003276 264.9290  37.7022 14.98358490  1306,6950.105,96.105,574.247,569.693,0.0
55425.0,STARLINK-5615,PAYLOAD,2023-06-16 06:00:00,14.98337753,0.0003243,70.0018,79.3913,272.5605,116.9626,-0.0011137,-0.00013359,0.0,0 STARLINK-5615,1 55425U 23014AL  23167.25001157 -.00013359  00000-0 -11137-2 0  9999,2 55425  70.0018  79.3913 0003243 272.5605 116.9626 14.98337753 21217,6950.169,96.107,574.288,569.78,0.0
55425.0,STARLINK-5615,PAYLOAD,2023-06-16 14:00:01,14.98296731,0.0003214,70.0021,78.5511,266.8663,120.16,0.0069486,0.00083744,0.0,0 STARLINK-5615,1 55425U 23014AL  23167.58334491  .00083744  00000-0  69486-2 0  9998,2 55425  70.0021  78.5511 0003214 266.8663 120.1600 14.98296731  1301,6950.296,96.109,574.395,569.927,0.0
55425.0,STARLINK-5615,PAYLOAD,2023-06-16 22:00:00,14.98383689,0.0003313,70.0023,77.7109,269.9371,114.5568,-0.0064863,-0.00076754,0.0,0 STARLINK-5615,1 55425U 23014AL  23167.91667824 -.00076754  00000-0 -64863-2 0  9993,2 55425  70.0023  77.7109 0003313 269.9371 114.5568 14.98383689 21319,6950.027,96.104,574.194,569.589,0.0
55425.0,STARLINK-5615,PAYLOAD,2023-06-17 04:18:01,14.98336099,0.0002992,69.9999,77.0494,268.893,91.1886,8.9905e-05,9.8e-06,0.0,0 STARLINK-5615,1 55425U 23014AL  23168.17918523  .00000980  00000-0  89905-4 0  9999,2 55425  69.9999  77.0494 0002992 268.8930  91.1886 14.98336099 21359,6950.174,96.107,574.119,569.96,0.0
55425.0,STARLINK-5615,PAYLOAD,2023-06-17 10:42:34,14.98326049,0.0002983,70.0006,76.3753,274.0535,86.0283,-3.8112e-05,-5.48e-06,0.0,0 STARLINK-5615,1 55425U 23014AL  23168.44623512 -.00000548  00000-0 -38112-4 0  9996,2 55425  70.0006  76.3753 0002983 274.0535  86.0283 14.98326049 22338,6950.205,96.107,574.143,569.997,0.0
55425.0,STARLINK-5615,PAYLOAD,2023-06-17 17:07:07,14.98324094,0.0002882,70.0001,75.7031,268.1425,91.9404,-0.00013046,-1.649e-05,0.0,0 STARLINK-5615,1 55425U 23014AL  23168.71327994 -.00001649  00000-0 -13046-3 0  9992,2 55425  70.0001  75.7031 0002882 268.1425  91.9404 14.98324094 21433,6950.211,96.107,574.079,570.073,0.0
55425.0,STARLINK-5615,PAYLOAD,2023-06-18 10:44:36,14.9832786,0.0002949,70.0005,73.8516,269.8945,90.1876,-0.00011711,-1.49e-05,0.0,0 STARLINK-5615,1 55425U 23014AL  23169.44763995 -.00001490  00000-0 -11711-3 0  9999,2 55425  70.0005  73.8516 0002949 269.8945  90.1876 14.98327860 22487,6950.2,96.107,574.114,570.015,0.0
55425.0,STARLINK-5615,PAYLOAD,2023-06-18 23:33:39,14.9833282,0.0003029,70.0004,72.505,270.3443,89.7369,4.696e-05,4.67e-06,0.0,0 STARLINK-5615,1 55425U 23014AL  23169.98171208  .00000467  00000-0  46960-4 0  9994,2 55425  70.0004  72.5050 0003029 270.3443  89.7369 14.98332820 21623,6950.184,96.107,574.154,569.944,0.0
55425.0,STARLINK-5615,PAYLOAD,2023-06-19 02:45:56,14.98332946,0.0003022,70.0004,72.1683,270.2495,89.8317,4.8362e-05,4.84e-06,0.0,0 STARLINK-5615,1 55425U 23014AL  23170.11523185  .00000484  00000-0  48362-4 0  9993,2 55425  70.0004  72.1683 0003022 270.2495  89.8317 14.98332946 22589,6950.184,96.107,574.149,569.948,0.0
55425.0,STARLINK-5615,PAYLOAD,2023-06-19 23:35:41,14.98325132,0.0003234,69.9997,69.9792,270.7819,89.297,0.00011167,1.239e-05,0.0,0 STARLINK-5615,1 55425U 23014AL  23170.98311504  .00001239  00000-0  11167-3 0  9999,2 55425  69.9997  69.9792 0003234 270.7819  89.2970 14.98325132 21770,6950.208,96.107,574.321,569.825,0.0
55425.0,STARLINK-5615,PAYLOAD,2023-06-20 02:47:57,14.98328532,0.0003203,69.9998,69.6427,271.4839,88.5953,0.00014479,1.635e-05,0.0,0 STARLINK-5615,1 55425U 23014AL  23171.11663228  .00001635  00000-0  14479-3 0  9997,2 55425  69.9998  69.6427 0003203 271.4839  88.5953 14.98328532 22736,6950.197,96.107,574.289,569.836,0.0
55425.0,STARLINK-5615,PAYLOAD,2023-06-20 20:25:25,14.9833398,0.0003089,70.0,67.7914,270.6807,89.3998,-1.7521e-06,-1.14e-06,0.0,0 STARLINK-5615,1 55425U 23014AL  23171.85099244 -.00000114  00000-0 -17521-5 0  9995,2 55425  70.0000  67.7914 0003089 270.6807  89.3998 14.98333980 22844,6950.181,96.107,574.192,569.899,0.0
